{
  "norad_id": 40975,
  "name": "SNAP-3 JIMI",
  "history": [
    {
      "epoch": "2026-05-05T18:41:09.539232Z",
      "apogee_km": 633.855561727536,
      "perigee_km": 488.4634216338427,
      "latitude_deg": 6.622788486450465e-05,
      "longitude_deg": -150.03379597251168,
      "height_km": 541.0123936665119,
      "semi_major_axis_km": 6939.2964916806895,
      "eccentricity": 0.010476,
      "inclination_deg": 64.7664,
      "raan_deg": 353.9046,
      "arg_perigee_deg": 72.9356,
      "mean_anomaly_deg": 288.3206,
      "mean_motion_rev_day": 15.01860504
    },
    {
      "epoch": "2026-05-06T20:15:20.746368Z",
      "apogee_km": 633.8379423376264,
      "perigee_km": 488.40359022039775,
      "latitude_deg": -1.0369451786355345e-05,
      "longitude_deg": -177.99974588696162,
      "height_km": 540.4298731795529,
      "semi_major_axis_km": 6939.257766279012,
      "eccentricity": 0.0104791,
      "inclination_deg": 64.7662,
      "raan_deg": 350.5355,
      "arg_perigee_deg": 72.4892,
      "mean_anomaly_deg": 288.7644,
      "mean_motion_rev_day": 15.01873076
    },
    {
      "epoch": "2026-05-07T07:26:32.932032Z",
      "apogee_km": 633.8346399564016,
      "perigee_km": 488.3756341281487,
      "latitude_deg": 3.11761056109865e-05,
      "longitude_deg": 12.266576124860636,
      "height_km": 540.162620069307,
      "semi_major_axis_km": 6939.242137042275,
      "eccentricity": 0.0104809,
      "inclination_deg": 64.7664,
      "raan_deg": 349.062,
      "arg_perigee_deg": 72.2831,
      "mean_anomaly_deg": 288.9694,
      "mean_motion_rev_day": 15.0187815
    },
    {
      "epoch": "2026-05-08T13:48:22.565088Z",
      "apogee_km": 633.7949831027909,
      "perigee_km": 488.33405304066764,
      "latitude_deg": 2.243335275083014e-05,
      "longitude_deg": -88.43723279941135,
      "height_km": 539.5048830951877,
      "semi_major_axis_km": 6939.201518071729,
      "eccentricity": 0.0104811,
      "inclination_deg": 64.7663,
      "raan_deg": 345.062,
      "arg_perigee_deg": 71.7686,
      "mean_anomaly_deg": 289.4805,
      "mean_motion_rev_day": 15.01891337
    },
    {
      "epoch": "2026-05-09T20:10:11.159616Z",
      "apogee_km": 633.7739541150922,
      "perigee_km": 488.27775092120373,
      "latitude_deg": 5.9558077253923346e-05,
      "longitude_deg": 170.8632199764828,
      "height_km": 538.8248684283542,
      "semi_major_axis_km": 6939.162852518148,
      "eccentricity": 0.0104837,
      "inclination_deg": 64.7664,
      "raan_deg": 341.0619,
      "arg_perigee_deg": 71.237,
      "mean_anomaly_deg": 290.0088,
      "mean_motion_rev_day": 15.0190389
    },
    {
      "epoch": "2026-05-10T16:56:40.764768Z",
      "apogee_km": 633.760916645344,
      "perigee_km": 488.2430091104161,
      "latitude_deg": -2.4053126075407487e-05,
      "longitude_deg": -144.3504694685509,
      "height_km": 538.4066848217474,
      "semi_major_axis_km": 6939.13896287788,
      "eccentricity": 0.0104853,
      "inclination_deg": 64.7664,
      "raan_deg": 338.3248,
      "arg_perigee_deg": 70.9093,
      "mean_anomaly_deg": 290.3343,
      "mean_motion_rev_day": 15.01911646
    },
    {
      "epoch": "2026-05-11T20:06:42.018048Z",
      "apogee_km": 633.7531994979481,
      "perigee_km": 488.1956228921563,
      "latitude_deg": -6.0387528128574486e-05,
      "longitude_deg": 163.44938145499114,
      "height_km": 537.807382175428,
      "semi_major_axis_km": 6939.111411195052,
      "eccentricity": 0.0104882,
      "inclination_deg": 64.7662,
      "raan_deg": 334.7456,
      "arg_perigee_deg": 70.4344,
      "mean_anomaly_deg": 290.8061,
      "mean_motion_rev_day": 15.01920591
    },
    {
      "epoch": "2026-05-12T13:41:24.895392Z",
      "apogee_km": 633.7578814704739,
      "perigee_km": 488.1535116005298,
      "latitude_deg": 2.0676909410798735e-05,
      "longitude_deg": -103.2671623829758,
      "height_km": 537.4270203920754,
      "semi_major_axis_km": 6939.092696535502,
      "eccentricity": 0.0104916,
      "inclination_deg": 64.7661,
      "raan_deg": 332.4296,
      "arg_perigee_deg": 70.1368,
      "mean_anomaly_deg": 291.102,
      "mean_motion_rev_day": 15.01926667
    }
  ]
}